*******************************************************************************
Ephemeris / WWW_USER Mon Mar 26 19:45:34 2018 Pasadena, USA      / Horizons    
*******************************************************************************
Target body name: Ganymede (503)                  {source: jup310}
Center body name: Jupiter Barycenter (5)          {source: DE431mx}
Center-site name: BODY CENTER
*******************************************************************************
Start time      : A.D. 2000-Jan-01 00:00:00.0000 TDB
Stop  time      : A.D. 2001-Jan-01 00:00:00.0000 TDB
Step-size       : 7200 minutes
*******************************************************************************
Center geodetic : 0.00000000,0.00000000,0.0000000 {E-lon(deg),Lat(deg),Alt(km)}
Center cylindric: 0.00000000,0.00000000,0.0000000 {E-lon(deg),Dxy(km),Dz(km)}
Center radii    : (undefined)                                                  
Output units    : AU-D                                                         
Output type     : GEOMETRIC cartesian states
Output format   : 2 (position and velocity)
Reference frame : ICRF/J2000.0                                                 
Coordinate systm: Ecliptic and Mean Equinox of Reference Epoch                 
*******************************************************************************
JDTDB
   X     Y     Z
   VX    VY    VZ
*******************************************************************************
$$SOE
2451544.500000000 = A.D. 2000-Jan-01 00:00:00.0000 TDB 
  -6.923051624096822E-03 -1.816270400104620E-03 -1.447083935961778E-04
   1.604652892369655E-03 -6.068471287861143E-03 -2.066169350191718E-04
2451549.500000000 = A.D. 2000-Jan-06 00:00:00.0000 TDB 
   4.290374851984599E-04  7.145187061768881E-03  2.692332670776995E-04
  -6.264082552390687E-03  3.833971555819143E-04 -5.594371817853140E-05
2451554.500000000 = A.D. 2000-Jan-11 00:00:00.0000 TDB 
   6.633144751442430E-03 -2.660179240052545E-03 -2.416964122618133E-05
   2.345626643690905E-03  5.831195765565646E-03  2.420711005348695E-04
2451559.500000000 = A.D. 2000-Jan-16 00:00:00.0000 TDB 
  -4.644771390380716E-03 -5.433141708365108E-03 -2.530976203493754E-04
   4.785189459132875E-03 -4.075605659782199E-03 -9.724003859817965E-05
2451564.500000000 = A.D. 2000-Jan-21 00:00:00.0000 TDB 
  -3.714651702214792E-03  6.122083369155417E-03  1.849675954569873E-04
  -5.365103190182768E-03 -3.250009094456593E-03 -1.803838164323334E-04
2451569.500000000 = A.D. 2000-Jan-26 00:00:00.0000 TDB 
   6.968653590539092E-03  1.599751993836741E-03  1.372852045090575E-04
  -1.402519964022835E-03  6.125011853167211E-03  2.109808329631734E-04
2451574.500000000 = A.D. 2000-Jan-31 00:00:00.0000 TDB 
  -7.104286594807360E-04 -7.107508669566076E-03 -2.710260004024988E-04
   6.258438758334423E-03 -6.207345508892225E-04  4.715802447052354E-05
2451579.500000000 = A.D. 2000-Feb-05 00:00:00.0000 TDB 
  -6.541228900664736E-03  2.922770071350111E-03  3.486671811273178E-05
  -2.555939184980494E-03 -5.724993716128500E-03 -2.405462354994550E-04
2451584.500000000 = A.D. 2000-Feb-10 00:00:00.0000 TDB 
   4.809591529213886E-03  5.293546080997012E-03  2.498485291110637E-04
  -4.645064381192744E-03  4.229204920799103E-03  1.044672698902565E-04
2451589.500000000 = A.D. 2000-Feb-15 00:00:00.0000 TDB 
   3.477409745344215E-03 -6.235072440080062E-03 -1.918024539812338E-04
   5.496131946472947E-03  3.062454163389674E-03  1.749788424500101E-04
2451594.500000000 = A.D. 2000-Feb-20 00:00:00.0000 TDB 
  -7.038540996065452E-03 -1.309821339440335E-03 -1.274122916820538E-04
   1.162022009992176E-03 -6.166533935136613E-03 -2.152350668607808E-04
2451599.500000000 = A.D. 2000-Feb-25 00:00:00.0000 TDB 
   9.377696157833495E-04  7.098084741895338E-03  2.732712233879103E-04
  -6.219207074033649E-03  8.302831350434432E-04 -3.901689187113761E-05
2451604.500000000 = A.D. 2000-Mar-01 00:00:00.0000 TDB 
   6.423817502174704E-03 -3.126257750846851E-03 -4.366961039247196E-05
   2.758946484524893E-03  5.649829336907131E-03  2.400976270315713E-04
2451609.500000000 = A.D. 2000-Mar-06 00:00:00.0000 TDB 
  -5.027034979157801E-03 -5.080817119171053E-03 -2.444916169185569E-04
   4.478710886337792E-03 -4.411025965586112E-03 -1.130448051367818E-04
2451614.500000000 = A.D. 2000-Mar-11 00:00:00.0000 TDB 
  -3.266096069645774E-03  6.375402731405007E-03  1.993728237725621E-04
  -5.583009201072714E-03 -2.854814736724148E-03 -1.683367704623011E-04
2451619.500000000 = A.D. 2000-Mar-16 00:00:00.0000 TDB 
   7.064550835519641E-03  1.099373293652866E-03  1.199888939024230E-04
  -9.604349986111324E-04  6.209959780403299E-03  2.191305684507331E-04
2451624.500000000 = A.D. 2000-Mar-21 00:00:00.0000 TDB 
  -1.222113416470447E-03 -7.035265419392405E-03 -2.741945338685777E-04
   6.199503933269917E-03 -1.070497896275789E-03  2.995806974216426E-05
2451629.500000000 = A.D. 2000-Mar-26 00:00:00.0000 TDB 
  -6.314140528427184E-03  3.389205911966532E-03  5.459306470351159E-05
  -2.961964213097767E-03 -5.523962355790596E-03 -2.377829303348288E-04
2451634.500000000 = A.D. 2000-Mar-31 00:00:00.0000 TDB 
   5.176348731495926E-03  4.937430854650530E-03  2.409437604171857E-04
  -4.329338617093607E-03  4.550302389698332E-03  1.198641581268584E-04
2451639.500000000 = A.D. 2000-Apr-05 00:00:00.0000 TDB 
   3.019439710605986E-03 -6.466533773549947E-03 -2.055307673791375E-04
   5.704051799374826E-03  2.660253697323208E-03  1.625720403924909E-04
2451644.500000000 = A.D. 2000-Apr-10 00:00:00.0000 TDB 
  -7.115404093428695E-03 -7.954641315566712E-04 -1.093922518819306E-04
   7.131270186133808E-04 -6.234205510673503E-03 -2.228443841459594E-04
2451649.500000000 = A.D. 2000-Apr-15 00:00:00.0000 TDB 
   1.445479868966206E-03  7.014421336724794E-03  2.759960031761490E-04
  -6.141785829171774E-03  1.274620586713938E-03 -2.180850768227679E-05
2451654.500000000 = A.D. 2000-Apr-20 00:00:00.0000 TDB 
   6.182916193336882E-03 -3.576468508377147E-03 -6.295961613648629E-05
   3.157955111377296E-03  5.438181049929138E-03  2.368841994913742E-04
2451659.500000000 = A.D. 2000-Apr-25 00:00:00.0000 TDB 
  -5.381038433837672E-03 -4.702342104803536E-03 -2.346389662190554E-04
   4.149305731884372E-03 -4.723746470748286E-03 -1.282978908995974E-04
2451664.500000000 = A.D. 2000-Apr-30 00:00:00.0000 TDB 
  -2.797163484892640E-03  6.596437017481096E-03  2.128550333375738E-04
  -5.773062981128636E-03 -2.443898213040825E-03 -1.554194021437251E-04
2451669.500000000 = A.D. 2000-May-05 00:00:00.0000 TDB 
   7.125878499365138E-03  5.919631084747868E-04  1.020602537669584E-04
  -5.120998325628903E-04  6.262113583030323E-03  2.261770149036086E-04
2451674.500000000 = A.D. 2000-May-10 00:00:00.0000 TDB 
  -1.725196481646335E-03 -6.927043578084208E-03 -2.759819299107547E-04
   6.108091347821100E-03 -1.514263017040844E-03  1.261905778421746E-05
2451679.500000000 = A.D. 2000-May-15 00:00:00.0000 TDB 
  -6.051801292642204E-03  3.838247568119626E-03  7.407995281820797E-05
  -3.353493926526501E-03 -5.295339500798512E-03 -2.338784412288035E-04
2451684.500000000 = A.D. 2000-May-20 00:00:00.0000 TDB 
   5.519166584191436E-03  4.554032382740724E-03  2.308003358336110E-04
  -3.989839550366488E-03  4.848607291528317E-03  1.347017362086336E-04
2451689.500000000 = A.D. 2000-May-25 00:00:00.0000 TDB 
   2.547525403278802E-03 -6.665092737197440E-03 -2.182246372217335E-04
   5.881576018494929E-03  2.243910158085703E-03  1.493288864419644E-04
2451694.500000000 = A.D. 2000-May-30 00:00:00.0000 TDB 
  -7.153514975714764E-03 -2.782516527230678E-04 -9.085304261240951E-05
   2.606180081731065E-04 -6.270128763273711E-03 -2.293480646974351E-04
2451699.500000000 = A.D. 2000-Jun-04 00:00:00.0000 TDB 
   1.948896997006917E-03  6.893268663082389E-03  2.773218226737634E-04
  -6.032556562130635E-03  1.713597313399247E-03 -4.451540437628692E-06
2451704.500000000 = A.D. 2000-Jun-09 00:00:00.0000 TDB 
   5.911087637963088E-03 -4.009563754310636E-03 -8.196035328117658E-05
   3.540697095731441E-03  5.197277382281835E-03  2.324355394709407E-04
2451709.500000000 = A.D. 2000-Jun-14 00:00:00.0000 TDB 
  -5.705111621504213E-03 -4.301215607110234E-03 -2.236423722429118E-04
   3.798731087730664E-03 -5.011415749421422E-03 -1.428662376018813E-04
2451714.500000000 = A.D. 2000-Jun-19 00:00:00.0000 TDB 
  -2.311404352632587E-03  6.782282938783361E-03  2.252373830181081E-04
  -5.934095866725698E-03 -2.020474906988988E-03 -1.417414125383525E-04
2451719.500000000 = A.D. 2000-Jun-24 00:00:00.0000 TDB 
   7.151620768386955E-03  7.918439237727388E-05  8.355316992534241E-05
  -6.008922254743908E-05  6.281283203461881E-03  2.320592113678585E-04
2451724.500000000 = A.D. 2000-Jun-29 00:00:00.0000 TDB 
  -2.217497346050979E-03 -6.784343027835982E-03 -2.763902599446136E-04
   5.984494175759078E-03 -1.949401175548306E-03 -4.750581937705921E-06
2451729.500000000 = A.D. 2000-Jul-04 00:00:00.0000 TDB 
  -5.757077799245101E-03  4.265303123377149E-03  9.311093990111121E-05
  -3.728229941783588E-03 -5.040105923375084E-03 -2.288125107833607E-04
2451734.500000000 = A.D. 2000-Jul-09 00:00:00.0000 TDB 
   5.835181414705693E-03  4.144657346955865E-03  2.194118639870172E-04
  -3.628817293867694E-03  5.122330040526276E-03  1.488715048469813E-04
2451739.500000000 = A.D. 2000-Jul-14 00:00:00.0000 TDB 
   2.063375965415778E-03 -6.830419421647787E-03 -2.298283598073278E-04
   6.027608018931921E-03  1.815817605540078E-03  1.353082675597396E-04
2451744.500000000 = A.D. 2000-Jul-19 00:00:00.0000 TDB 
  -7.153670413017832E-03  2.375019440860221E-04 -7.194819864532847E-05
  -1.922319771499951E-04 -6.273700373275064E-03 -2.346617012528065E-04
2451749.500000000 = A.D. 2000-Jul-24 00:00:00.0000 TDB 
   2.443659699490444E-03  6.734471457321919E-03  2.771629797390145E-04
  -5.892541623124859E-03  2.144202333966774E-03  1.293568282779167E-05
